OBJECT_NAME,OBJECT_ID,EPOCH,MEAN_MOTION,ECCENTRICITY,INCLINATION,RA_OF_ASC_NODE,ARG_OF_PERICENTER,MEAN_ANOMALY,EPHEMERIS_TYPE,CLASSIFICATION_TYPE,NORAD_CAT_ID,ELEMENT_SET_NO,REV_AT_EPOCH,BSTAR,MEAN_MOTION_DOT,MEAN_MOTION_DDOT
OSCAR 7 (AO-7),1974-089B,2026-07-16T00:31:05.102976,12.53698596,.0012657,101.9906,210.5687,76.8170,307.7324,0,U,7530,999,36413,.58784E-4,-.37E-6,0
PHASE 3B (AO-10),1983-058B,2026-07-13T02:29:46.528800,2.05872336,.60022234,25.9345,215.2934,122.7887,309.2966,0,U,14129,999,29602,0,-.187E-5,0
UOSAT 2 (UO-11),1984-021B,2026-07-15T21:08:41.691840,14.90849797,.0009246,97.8076,162.1394,89.5955,270.6323,0,U,14781,999,26140,.57146E-4,.507E-5,0
LUSAT (LO-19),1990-005G,2026-07-15T23:54:45.834912,14.34130880,.001256,98.8847,219.5949,119.2516,240.9925,0,U,20442,999,90652,.28309E-4,.33E-6,0
EYESAT A (AO-27),1993-061C,2026-07-16T03:47:34.094400,14.30949207,.0008709,98.6867,264.5590,23.1959,336.9615,0,U,22825,999,71114,.31913E-4,.39E-6,0
ITAMSAT (IO-26),1993-061D,2026-07-16T03:05:28.141152,14.31376814,.0008906,98.6815,264.4502,6.6697,353.4603,0,U,22826,999,71145,.31862E-4,.4E-6,0
RADIO ROSTO (RS15),1994-085A,2026-07-16T04:56:38.540832,11.27583520,.0156952,64.8149,256.2858,358.5255,1.5187,0,U,23439,999,29917,.92423E-4,-.39E-6,0
JAS-2 (FO-29),1996-046B,2026-07-16T03:28:41.414592,13.53275760,.035032,98.5219,42.0475,21.4805,340.0632,0,U,24278,999,47708,.31662E-4,-.4E-7,0
TECHSAT 1B (GO-32),1998-043D,2026-07-15T22:25:15.580704,14.24433441,.0002197,99.0086,190.4201,113.5065,246.6344,0,U,25397,999,45542,.2147E-4,.3E-7,0
ISS (ZARYA),1998-067A,2026-07-15T18:23:37.536288,15.49019038,.00067189,51.6311,158.6576,300.0875,59.9447,0,U,25544,999,57618,.82095193E-4,.4078E-4,0
PCSAT (NO-44),2001-043C,2026-07-16T01:48:17.989344,14.31965199,.0005919,67.0495,169.5533,266.6744,93.3681,0,U,26931,999,29458,.35829E-4,.13E-6,0
SAUDISAT 1C (SO-50),2002-058C,2026-07-16T03:36:55.096416,14.83099305,.0074499,64.5518,39.3689,257.0898,102.1880,0,U,27607,999,26875,.5936E-4,.35E-5,0
CUTE-1 (CO-55),2003-031E,2026-07-15T23:30:01.450944,14.24351837,.0010841,98.6744,205.1765,100.6537,259.5863,0,U,27844,999,19577,.75469E-4,.131E-5,0
CUBESAT XI-IV (CO-57),2003-031J,2026-07-15T23:34:14.617632,14.23634777,.0010566,98.6774,204.8688,117.3488,242.8767,0,U,27848,999,19547,.65012E-4,.105E-5,0
MOZHAETS 4 (RS22),2003-042A,2026-07-16T05:13:21.121248,14.73513468,.0011297,98.3468,22.3978,170.0410,300.8743,0,U,27939,999,21982,.43981E-5,-.25E-6,0
CUBESAT XI-V,2005-043F,2026-07-15T22:32:39.794208,14.72703396,.0015281,98.3016,353.1708,113.0525,247.2294,0,U,28895,999,10598,.10996E-3,.649E-5,0
CUTE-1.7+APD II (CO-65),2008-021C,2026-07-16T05:09:52.900704,15.09706582,.0006941,97.8296,179.2460,295.5098,64.5412,0,U,32785,999,98957,.15875E-3,.2492E-4,0
SEEDS II (CO-66),2008-021J,2026-07-15T23:33:57.843936,15.33682976,.0003155,97.7522,196.2767,154.4118,205.7280,0,U,32791,999,99170,.3095E-3,.9999E-4,0
YUBILEINY (RS30),2008-025A,2026-07-16T03:37:30.549792,12.43180830,.0018631,82.5060,337.4217,246.7923,113.1195,0,U,32953,999,82329,.23699E-3,.43E-6,0
KKS-1 (KISEKI),2009-002H,2026-07-16T03:09:17.379360,14.83190279,.0007512,98.1173,120.0323,185.7130,174.3998,0,U,33499,999,94048,.74836E-4,.555E-5,0
SWISSCUBE,2009-051B,2026-07-16T04:15:03.259584,14.62531689,.0007888,98.4006,105.5678,116.4429,243.7582,0,U,35932,999,89339,.97133E-4,.443E-5,0
BEESAT-1,2009-051C,2026-07-15T07:29:04.477632,14.61761931,.0006132,98.3935,104.2639,129.5089,230.6654,0,U,35933,999,89329,.85522677E-4,.377E-5,0
ITUPSAT1,2009-051E,2026-07-15T04:34:09.441120,14.60478742,.00080864,98.4018,103.3025,143.1681,217.0076,0,U,35935,999,89282,.82053832E-4,.349E-5,0
XIWANG-1 (HOPE-1),2009-072B,2026-07-16T02:57:54.207648,13.16440679,.0007539,100.4039,150.4957,162.6984,197.4387,0,U,36122,999,79681,.14858E-3,.12E-6,0
O/OREOS (USA 219),2010-062C,2026-07-15T22:11:59.250048,14.93853123,.0013999,71.9698,15.2352,3.6363,356.4907,0,U,37224,999,12093,.99967E-4,.1E-4,0
JUGNU,2011-058B,2026-07-16T04:15:50.795136,14.13783599,.0018592,19.9596,132.2939,37.2294,97.4128,0,U,37839,999,76313,.36708E-4,.337E-5,0
SRMSAT,2011-058D,2026-07-16T04:47:31.733376,14.11581214,.001173,19.9709,243.8664,162.2183,240.1222,0,U,37841,999,76192,.36066E-4,.332E-5,0
STRAND-1,2013-009E,2026-07-15T17:45:38.345760,14.37179078,.00094374,98.3935,16.2735,139.6200,220.5689,0,U,39090,999,70116,.55623538E-4,.123E-5,0
ZACUBE-1 (TSHEPISOSAT),2013-066B,2026-07-15T22:25:35.216832,15.01330710,.0044057,97.8008,159.4128,152.8424,207.5118,0,U,39417,999,68504,.98253E-4,.1227E-4,0
GOMX-1,2013-066Q,2026-07-16T04:37:16.562784,14.69543658,.0128167,97.6464,35.8247,344.9990,14.7429,0,U,39430,999,67417,.96202E-4,.594E-5,0
